start=new Date('2022-02-25T00:00:00.000Z').valueOf();
sats=[{"CENTER_NAME":"EARTH","CLASSIFICATION_TYPE":"U","BSTAR":"-0.00009664300000","FILE":"3320325","PERIAPSIS":"545.986","PERIOD":"95.592","SITE":"AFETR","DECAY_DATE":null,"SEMIMAJOR_AXIS":"6925.328","OBJECT_NAME":"STARLINK-2384","OBJECT_TYPE":"PAYLOAD","APOAPSIS":"548.400","COUNTRY_CODE":"US","MEAN_ANOMALY":"309.6392","ECCENTRICITY":"0.00017430","RA_OF_ASC_NODE":"7.8623","MEAN_ELEMENT_THEORY":"SGP4","ELEMENT_SET_NO":"999","NORAD_CAT_ID":"47803","INCLINATION":"53.0566","LAUNCH_DATE":"2021-03-11","EPHEMERIS_TYPE":"0","TLE_LINE1":"1 47803U 21018S   22055.86874529 -.00001721  00000-0 -96643-4 0  9992","RCS_SIZE":"LARGE","MEAN_MOTION":"15.06406729","GP_ID":"196902207","EPOCH":"2022-02-24T20:50:59.593056","MEAN_MOTION_DOT":"-0.00001721","TIME_SYSTEM":"UTC","REV_AT_EPOCH":"5473","TLE_LINE2":"2 47803  53.0566   7.8623 0001743  50.4751 309.6392 15.06406729 54733","MEAN_MOTION_DDOT":"0.0000000000000","ARG_OF_PERICENTER":"50.4751","OBJECT_ID":"2021-018S","REF_FRAME":"TEME"},{"BSTAR":"-0.00001933600000","CLASSIFICATION_TYPE":"U","CENTER_NAME":"EARTH","PERIOD":"95.593","SITE":"AFETR","PERIAPSIS":"546.106","FILE":"3320325","OBJECT_NAME":"STARLINK-2385","DECAY_DATE":null,"SEMIMAJOR_AXIS":"6925.402","COUNTRY_CODE":"US","APOAPSIS":"548.428","OBJECT_TYPE":"PAYLOAD","ECCENTRICITY":"0.00016760","RA_OF_ASC_NODE":"7.7914","MEAN_ANOMALY":"302.2945","INCLINATION":"53.0576","NORAD_CAT_ID":"47804","ELEMENT_SET_NO":"999","LAUNCH_DATE":"2021-03-11","MEAN_ELEMENT_THEORY":"SGP4","MEAN_MOTION":"15.06382501","TLE_LINE1":"1 47804U 21018T   22055.88350423 -.00000569  00000-0 -19336-4 0  9990","RCS_SIZE":"LARGE","EPHEMERIS_TYPE":"0","GP_ID":"196901958","REV_AT_EPOCH":"5473","TIME_SYSTEM":"UTC","TLE_LINE2":"2 47804  53.0576   7.7914 0001676  57.8207 302.2945 15.06382501 54733","REF_FRAME":"TEME","MEAN_MOTION_DDOT":"0.0000000000000","OBJECT_ID":"2021-018T","ARG_OF_PERICENTER":"57.8207","MEAN_MOTION_DOT":"-0.00000569","EPOCH":"2022-02-24T21:12:14.765472"},{"MEAN_MOTION_DDOT":"0.0000000000000","TLE_LINE2":"2 47805  53.0568   7.7396 0001793  58.1248 301.9915 15.06389080 54741","REF_FRAME":"TEME","ARG_OF_PERICENTER":"58.1248","OBJECT_ID":"2021-018U","REV_AT_EPOCH":"5474","TIME_SYSTEM":"UTC","MEAN_MOTION_DOT":"0.00001965","EPOCH":"2022-02-24T21:26:49.104960","GP_ID":"196900706","MEAN_MOTION":"15.06389080","TLE_LINE1":"1 47805U 21018U   22055.89362390  .00001965  00000-0  15080-3 0  9998","RCS_SIZE":"LARGE","EPHEMERIS_TYPE":"0","LAUNCH_DATE":"2021-03-11","INCLINATION":"53.0568","NORAD_CAT_ID":"47805","ELEMENT_SET_NO":"999","MEAN_ELEMENT_THEORY":"SGP4","RA_OF_ASC_NODE":"7.7396","ECCENTRICITY":"0.00017930","MEAN_ANOMALY":"301.9915","COUNTRY_CODE":"US","APOAPSIS":"548.489","OBJECT_TYPE":"PAYLOAD","OBJECT_NAME":"STARLINK-2386","SEMIMAJOR_AXIS":"6925.382","DECAY_DATE":null,"SITE":"AFETR","PERIOD":"95.593","FILE":"3320325","PERIAPSIS":"546.005","BSTAR":"0.00015080000000","CLASSIFICATION_TYPE":"U","CENTER_NAME":"EARTH"},{"EPHEMERIS_TYPE":"0","MEAN_MOTION":"15.06390311","TLE_LINE1":"1 47806U 21018V   22055.91987476  .00001220  00000-0  10083-3 0  9992","RCS_SIZE":"LARGE","GP_ID":"196901456","TIME_SYSTEM":"UTC","REV_AT_EPOCH":"5459","REF_FRAME":"TEME","TLE_LINE2":"2 47806  53.0545  22.6312 0002136  53.6410 306.4776 15.06390311 54591","MEAN_MOTION_DDOT":"0.0000000000000","OBJECT_ID":"2021-018V","ARG_OF_PERICENTER":"53.6410","EPOCH":"2022-02-24T22:04:37.179264","MEAN_MOTION_DOT":"0.00001220","ECCENTRICITY":"0.00021360","RA_OF_ASC_NODE":"22.6312","MEAN_ANOMALY":"306.4776","ELEMENT_SET_NO":"999","INCLINATION":"53.0545","NORAD_CAT_ID":"47806","LAUNCH_DATE":"2021-03-11","MEAN_ELEMENT_THEORY":"SGP4","OBJECT_NAME":"STARLINK-2387","DECAY_DATE":null,"SEMIMAJOR_AXIS":"6925.378","COUNTRY_CODE":"US","OBJECT_TYPE":"PAYLOAD","APOAPSIS":"548.723","BSTAR":"0.00010083000000","CLASSIFICATION_TYPE":"U","CENTER_NAME":"EARTH","PERIOD":"95.593","SITE":"AFETR","PERIAPSIS":"545.764","FILE":"3320325"},{"DECAY_DATE":null,"SEMIMAJOR_AXIS":"6925.323","OBJECT_NAME":"STARLINK-2388","OBJECT_TYPE":"PAYLOAD","APOAPSIS":"548.588","COUNTRY_CODE":"US","CLASSIFICATION_TYPE":"U","CENTER_NAME":"EARTH","BSTAR":"0.00032876000000","FILE":"3320325","PERIAPSIS":"545.788","PERIOD":"95.592","SITE":"AFETR","EPHEMERIS_TYPE":"0","TLE_LINE1":"1 47807U 21018W   22055.84386959  .00004620  00000-0  32876-3 0  9995","MEAN_MOTION":"15.06408384","RCS_SIZE":"LARGE","GP_ID":"196901708","EPOCH":"2022-02-24T20:15:10.332576","MEAN_MOTION_DOT":"0.00004620","TIME_SYSTEM":"UTC","REV_AT_EPOCH":"5486","TLE_LINE2":"2 47807  53.0568 357.9675 0002022  56.0392 304.0789 15.06408384 54861","REF_FRAME":"TEME","MEAN_MOTION_DDOT":"0.0000000000000","OBJECT_ID":"2021-018W","ARG_OF_PERICENTER":"56.0392","MEAN_ANOMALY":"304.0789","ECCENTRICITY":"0.00020220","RA_OF_ASC_NODE":"357.9675","MEAN_ELEMENT_THEORY":"SGP4","ELEMENT_SET_NO":"999","NORAD_CAT_ID":"47807","INCLINATION":"53.0568","LAUNCH_DATE":"2021-03-11"},{"CLASSIFICATION_TYPE":"U","CENTER_NAME":"EARTH","BSTAR":"0.00010540000000","PERIAPSIS":"546.111","FILE":"3320325","SITE":"AFETR","PERIOD":"95.593","SEMIMAJOR_AXIS":"6925.371","DECAY_DATE":null,"OBJECT_NAME":"STARLINK-2389","APOAPSIS":"548.360","OBJECT_TYPE":"PAYLOAD","COUNTRY_CODE":"US","MEAN_ANOMALY":"300.1827","RA_OF_ASC_NODE":"23.4504","ECCENTRICITY":"0.00016240","MEAN_ELEMENT_THEORY":"SGP4","LAUNCH_DATE":"2021-03-11","NORAD_CAT_ID":"47808","INCLINATION":"53.0551","ELEMENT_SET_NO":"999","GP_ID":"196902458","RCS_SIZE":"LARGE","TLE_LINE1":"1 47808U 21018X   22055.74021216  .00001288  00000-0  10540-3 0  9998","MEAN_MOTION":"15.06392740","EPHEMERIS_TYPE":"0","MEAN_MOTION_DOT":"0.00001288","EPOCH":"2022-02-24T17:45:54.330624","TLE_LINE2":"2 47808  53.0551  23.4504 0001624  59.9323 300.1827 15.06392740 54568","ARG_OF_PERICENTER":"59.9323","MEAN_MOTION_DDOT":"0.0000000000000","REF_FRAME":"TEME","OBJECT_ID":"2021-018X","REV_AT_EPOCH":"5456","TIME_SYSTEM":"UTC"},{"GP_ID":"196901206","EPHEMERIS_TYPE":"0","MEAN_MOTION":"15.06393783","TLE_LINE1":"1 47809U 21018Y   22055.94431870 -.00000574  00000-0 -19645-4 0  9997","RCS_SIZE":"LARGE","ARG_OF_PERICENTER":"60.0713","TLE_LINE2":"2 47809  53.0557  27.5122 0001707  60.0713 300.0445 15.06393783 54523","MEAN_MOTION_DDOT":"0.0000000000000","REF_FRAME":"TEME","OBJECT_ID":"2021-018Y","TIME_SYSTEM":"UTC","REV_AT_EPOCH":"5452","EPOCH":"2022-02-24T22:39:49.135680","MEAN_MOTION_DOT":"-0.00000574","RA_OF_ASC_NODE":"27.5122","ECCENTRICITY":"0.00017070","MEAN_ANOMALY":"300.0445","LAUNCH_DATE":"2021-03-11","ELEMENT_SET_NO":"999","INCLINATION":"53.0557","NORAD_CAT_ID":"47809","MEAN_ELEMENT_THEORY":"SGP4","OBJECT_NAME":"STARLINK-2390","SEMIMAJOR_AXIS":"6925.368","DECAY_DATE":null,"COUNTRY_CODE":"US","OBJECT_TYPE":"PAYLOAD","APOAPSIS":"548.415","BSTAR":"-0.00001964500000","CENTER_NAME":"EARTH","CLASSIFICATION_TYPE":"U","SITE":"AFETR","PERIOD":"95.593","FILE":"3320325","PERIAPSIS":"546.050"},{"OBJECT_NAME":"STARLINK-2391","SEMIMAJOR_AXIS":"6925.357","DECAY_DATE":null,"COUNTRY_CODE":"US","APOAPSIS":"548.414","OBJECT_TYPE":"PAYLOAD","BSTAR":"0.00006226900000","CLASSIFICATION_TYPE":"U","CENTER_NAME":"EARTH","SITE":"AFETR","PERIOD":"95.592","FILE":"3319947","PERIAPSIS":"546.030","GP_ID":"196871639","TLE_LINE1":"1 47810U 21018Z   22055.96919941  .00000646  00000-0  62269-4 0  9999","RCS_SIZE":"LARGE","MEAN_MOTION":"15.06397235","EPHEMERIS_TYPE":"0","MEAN_MOTION_DDOT":"0.0000000000000","TLE_LINE2":"2 47810  53.0559  37.4158 0001721  62.2784 297.8379 15.06397235 53988","REF_FRAME":"TEME","ARG_OF_PERICENTER":"62.2784","OBJECT_ID":"2021-018Z","REV_AT_EPOCH":"5398","TIME_SYSTEM":"UTC","MEAN_MOTION_DOT":"0.00000646","EPOCH":"2022-02-24T23:15:38.829024","RA_OF_ASC_NODE":"37.4158","ECCENTRICITY":"0.00017210","MEAN_ANOMALY":"297.8379","LAUNCH_DATE":"2021-03-11","NORAD_CAT_ID":"47810","INCLINATION":"53.0559","ELEMENT_SET_NO":"999","MEAN_ELEMENT_THEORY":"SGP4"},{"ECCENTRICITY":"0.00016640","RA_OF_ASC_NODE":"7.8325","MEAN_ANOMALY":"303.9643","ELEMENT_SET_NO":"999","INCLINATION":"53.0576","NORAD_CAT_ID":"47811","LAUNCH_DATE":"2021-03-11","MEAN_ELEMENT_THEORY":"SGP4","EPHEMERIS_TYPE":"0","MEAN_MOTION":"15.06397956","TLE_LINE1":"1 47811U 21018AA  22055.87612754  .00001512  00000-0  12037-3 0  9992","RCS_SIZE":"LARGE","GP_ID":"196902208","TIME_SYSTEM":"UTC","REV_AT_EPOCH":"5479","ARG_OF_PERICENTER":"56.1505","TLE_LINE2":"2 47811  53.0576   7.8325 0001664  56.1505 303.9643 15.06397956 54797","MEAN_MOTION_DDOT":"0.0000000000000","OBJECT_ID":"2021-018AA","REF_FRAME":"TEME","EPOCH":"2022-02-24T21:01:37.419456","MEAN_MOTION_DOT":"0.00001512","BSTAR":"0.00012037000000","CENTER_NAME":"EARTH","CLASSIFICATION_TYPE":"U","PERIOD":"95.592","SITE":"AFETR","FILE":"3320325","PERIAPSIS":"546.067","OBJECT_NAME":"STARLINK-2392","DECAY_DATE":null,"SEMIMAJOR_AXIS":"6925.355","COUNTRY_CODE":"US","OBJECT_TYPE":"PAYLOAD","APOAPSIS":"548.372"},{"MEAN_ANOMALY":"296.2334","RA_OF_ASC_NODE":"38.8464","ECCENTRICITY":"0.00015250","MEAN_ELEMENT_THEORY":"SGP4","LAUNCH_DATE":"2021-03-11","NORAD_CAT_ID":"47812","INCLINATION":"53.0573","ELEMENT_SET_NO":"999","GP_ID":"196901959","MEAN_MOTION":"15.06385808","TLE_LINE1":"1 47812U 21018AB  22055.64852521 -.00000812  00000-0 -35657-4 0  9994","RCS_SIZE":"LARGE","EPHEMERIS_TYPE":"0","MEAN_MOTION_DOT":"-0.00000812","EPOCH":"2022-02-24T15:33:52.578144","ARG_OF_PERICENTER":"63.8812","TLE_LINE2":"2 47812  53.0573  38.8464 0001525  63.8812 296.2334 15.06385808 54272","MEAN_MOTION_DDOT":"0.0000000000000","REF_FRAME":"TEME","OBJECT_ID":"2021-018AB","REV_AT_EPOCH":"5427","TIME_SYSTEM":"UTC","CENTER_NAME":"EARTH","CLASSIFICATION_TYPE":"U","BSTAR":"-0.00003565700000","PERIAPSIS":"546.201","FILE":"3320325","SITE":"AFETR","PERIOD":"95.593","SEMIMAJOR_AXIS":"6925.392","DECAY_DATE":null,"OBJECT_NAME":"STARLINK-2393","APOAPSIS":"548.313","OBJECT_TYPE":"PAYLOAD","COUNTRY_CODE":"US"}];
